{
  "type": "FeatureCollection",
  "features": [
    {
      "type": "Feature",
      "properties": {
        "norad_id": 32117,
        "name": "FENGYUN 1C DEB",
        "group": "fengyun-1c-debris",
        "lat": 72.53162627911517,
        "lon": 18.051030214282765,
        "alt_km": 787.5278760857746,
        "timestamp": "2025-12-27T19:21:59.034269+00:00",
        "meta_object_name": "FENGYUN 1C DEB",
        "meta_object_id": "1999-025CRK",
        "meta_epoch": "2025-12-27T02:09:18.038304",
        "meta_mean_motion": 14.24005143,
        "meta_eccentricity": 0.00267509,
        "meta_inclination": 98.6104,
        "meta_ra_of_asc_node": 46.1309,
        "meta_arg_of_pericenter": 50.8873,
        "meta_mean_anomaly": 309.4679,
        "meta_ephemeris_type": 0,
        "meta_classification_type": "U",
        "meta_norad_cat_id": 32117,
        "meta_element_set_no": 999,
        "meta_rev_at_epoch": 95001,
        "meta_bstar": 0.0011179918,
        "meta_mean_motion_dot": 2.534e-05,
        "meta_mean_motion_ddot": 0,
        "tle_line1": "1 32117U 99025CRK 25361.08979211  .00002534  00000+0  11180-2 0  9999",
        "tle_line2": "2 32117  98.6104  46.1309 0026750  50.8873 309.4679 14.24005143950015"
      },
      "geometry": {
        "type": "Point",
        "coordinates": [
          18.051030214282765,
          72.53162627911517
        ]
      }
    },
    {
      "type": "Feature",
      "properties": {
        "norad_id": 32119,
        "name": "FENGYUN 1C DEB",
        "group": "fengyun-1c-debris",
        "lat": 34.782167911315106,
        "lon": -141.35783516706834,
        "alt_km": 824.1326721141759,
        "timestamp": "2025-12-27T19:21:59.034277+00:00",
        "meta_object_name": "FENGYUN 1C DEB",
        "meta_object_id": "1999-025CRM",
        "meta_epoch": "2025-12-21T09:08:50.463168",
        "meta_mean_motion": 14.02839478,
        "meta_eccentricity": 0.00860891,
        "meta_inclination": 99.8866,
        "meta_ra_of_asc_node": 218.6288,
        "meta_arg_of_pericenter": 29.2524,
        "meta_mean_anomaly": 331.342,
        "meta_ephemeris_type": 0,
        "meta_classification_type": "U",
        "meta_norad_cat_id": 32119,
        "meta_element_set_no": 999,
        "meta_rev_at_epoch": 93849,
        "meta_bstar": 0.00056371909,
        "meta_mean_motion_dot": 8.5e-06,
        "meta_mean_motion_ddot": 0,
        "tle_line1": "1 32119U 99025CRM 25355.38113962  .00000850  00000+0  56372-3 0  9992",
        "tle_line2": "2 32119  99.8866 218.6288 0086089  29.2524 331.3420 14.02839478938499"
      },
      "geometry": {
        "type": "Point",
        "coordinates": [
          -141.35783516706834,
          34.782167911315106
        ]
      }
    },
    {
      "type": "Feature",
      "properties": {
        "norad_id": 32123,
        "name": "FENGYUN 1C DEB",
        "group": "fengyun-1c-debris",
        "lat": -61.949112903943146,
        "lon": -26.345063383014157,
        "alt_km": 582.8948309682073,
        "timestamp": "2025-12-27T19:21:59.034286+00:00",
        "meta_object_name": "FENGYUN 1C DEB",
        "meta_object_id": "1999-025CRR",
        "meta_epoch": "2025-12-27T05:56:16.625760",
        "meta_mean_motion": 14.61516208,
        "meta_eccentricity": 0.0159516,
        "meta_inclination": 98.9414,
        "meta_ra_of_asc_node": 170.2359,
        "meta_arg_of_pericenter": 248.5459,
        "meta_mean_anomaly": 292.6377,
        "meta_ephemeris_type": 0,
        "meta_classification_type": "U",
        "meta_norad_cat_id": 32123,
        "meta_element_set_no": 999,
        "meta_rev_at_epoch": 71586,
        "meta_bstar": 0.00041045,
        "meta_mean_motion_dot": 2.374e-05,
        "meta_mean_motion_ddot": 0,
        "tle_line1": "1 32123U 99025CRR 25361.24741465  .00002374  00000+0  41045-3 0  9998",
        "tle_line2": "2 32123  98.9414 170.2359 0159516 248.5459 292.6377 14.61516208715866"
      },
      "geometry": {
        "type": "Point",
        "coordinates": [
          -26.345063383014157,
          -61.949112903943146
        ]
      }
    },
    {
      "type": "Feature",
      "properties": {
        "norad_id": 32125,
        "name": "FENGYUN 1C DEB",
        "group": "fengyun-1c-debris",
        "lat": 45.04710017908818,
        "lon": 173.01772888978863,
        "alt_km": 751.3673864563434,
        "timestamp": "2025-12-27T19:21:59.034295+00:00",
        "meta_object_name": "FENGYUN 1C DEB",
        "meta_object_id": "1999-025CRT",
        "meta_epoch": "2025-12-23T16:44:51.530496",
        "meta_mean_motion": 14.70223503,
        "meta_eccentricity": 0.01727232,
        "meta_inclination": 99.0646,
        "meta_ra_of_asc_node": 339.2508,
        "meta_arg_of_pericenter": 289.2149,
        "meta_mean_anomaly": 69.0435,
        "meta_ephemeris_type": 0,
        "meta_classification_type": "U",
        "meta_norad_cat_id": 32125,
        "meta_element_set_no": 999,
        "meta_rev_at_epoch": 70684,
        "meta_bstar": 0.0023171985,
        "meta_mean_motion_dot": 0.00017568,
        "meta_mean_motion_ddot": 0,
        "tle_line1": "1 32125U 99025CRT 25357.69781864  .00017568  00000+0  23172-2 0  9992",
        "tle_line2": "2 32125  99.0646 339.2508 0172723 289.2149  69.0435 14.70223503706845"
      },
      "geometry": {
        "type": "Point",
        "coordinates": [
          173.01772888978863,
          45.04710017908818
        ]
      }
    },
    {
      "type": "Feature",
      "properties": {
        "norad_id": 32126,
        "name": "FENGYUN 1C DEB",
        "group": "fengyun-1c-debris",
        "lat": -68.49140743798421,
        "lon": 32.74730033621036,
        "alt_km": 878.8342145955212,
        "timestamp": "2025-12-27T19:21:59.034305+00:00",
        "meta_object_name": "FENGYUN 1C DEB",
        "meta_object_id": "1999-025CRU",
        "meta_epoch": "2025-12-14T22:11:18.681792",
        "meta_mean_motion": 13.56802944,
        "meta_eccentricity": 0.02807648,
        "meta_inclination": 99.1097,
        "meta_ra_of_asc_node": 224.8335,
        "meta_arg_of_pericenter": 249.9124,
        "meta_mean_anomaly": 107.16,
        "meta_ephemeris_type": 0,
        "meta_classification_type": "U",
        "meta_norad_cat_id": 32126,
        "meta_element_set_no": 999,
        "meta_rev_at_epoch": 61744,
        "meta_bstar": 0.001056147,
        "meta_mean_motion_dot": 9.24e-06,
        "meta_mean_motion_ddot": 0,
        "tle_line1": "1 32126U 99025CRU 25348.92452178  .00000924  00000+0  10561-2 0  9998",
        "tle_line2": "2 32126  99.1097 224.8335 0280764 249.9124 107.1600 13.56802944617445"
      },
      "geometry": {
        "type": "Point",
        "coordinates": [
          32.74730033621036,
          -68.49140743798421
        ]
      }
    },
    {
      "type": "Feature",
      "properties": {
        "norad_id": 32128,
        "name": "FENGYUN 1C DEB",
        "group": "fengyun-1c-debris",
        "lat": 52.38079671618541,
        "lon": 35.82935171944389,
        "alt_km": 1080.6259431138906,
        "timestamp": "2025-12-27T19:21:59.034314+00:00",
        "meta_object_name": "FENGYUN 1C DEB",
        "meta_object_id": "1999-025CRW",
        "meta_epoch": "2025-12-26T20:42:10.497600",
        "meta_mean_motion": 13.94265017,
        "meta_eccentricity": 0.0397506,
        "meta_inclination": 99.0297,
        "meta_ra_of_asc_node": 46.8116,
        "meta_arg_of_pericenter": 184.1472,
        "meta_mean_anomaly": 175.6362,
        "meta_ephemeris_type": 0,
        "meta_classification_type": "U",
        "meta_norad_cat_id": 32128,
        "meta_element_set_no": 999,
        "meta_rev_at_epoch": 63182,
        "meta_bstar": 0.00075033,
        "meta_mean_motion_dot": 1.879e-05,
        "meta_mean_motion_ddot": 0,
        "tle_line1": "1 32128U 99025CRW 25360.86262150  .00001879  00000+0  75033-3 0  9992",
        "tle_line2": "2 32128  99.0297  46.8116 0397506 184.1472 175.6362 13.94265017631825"
      },
      "geometry": {
        "type": "Point",
        "coordinates": [
          35.82935171944389,
          52.38079671618541
        ]
      }
    },
    {
      "type": "Feature",
      "properties": {
        "norad_id": 32129,
        "name": "FENGYUN 1C DEB",
        "group": "fengyun-1c-debris",
        "lat": 9.468722295043166,
        "lon": 119.25306366445238,
        "alt_km": 752.4251585426146,
        "timestamp": "2025-12-27T19:21:59.034324+00:00",
        "meta_object_name": "FENGYUN 1C DEB",
        "meta_object_id": "1999-025CRX",
        "meta_epoch": "2025-12-24T07:24:14.641056",
        "meta_mean_motion": 14.28606563,
        "meta_eccentricity": 0.00672143,
        "meta_inclination": 99.0579,
        "meta_ra_of_asc_node": 117.1473,
        "meta_arg_of_pericenter": 0.1462,
        "meta_mean_anomaly": 26.8014,
        "meta_ephemeris_type": 0,
        "meta_classification_type": "U",
        "meta_norad_cat_id": 32129,
        "meta_element_set_no": 999,
        "meta_rev_at_epoch": 94392,
        "meta_bstar": 0.0021405461,
        "meta_mean_motion_dot": 5.462e-05,
        "meta_mean_motion_ddot": 0,
        "tle_line1": "1 32129U 99025CRX 25358.30850279  .00005462  00000+0  21405-2 0  9999",
        "tle_line2": "2 32129  99.0579 117.1473 0067214   0.1462  26.8014 14.28606563943924"
      },
      "geometry": {
        "type": "Point",
        "coordinates": [
          119.25306366445238,
          9.468722295043166
        ]
      }
    }
  ]
}